[{"OBJECT_NAME":"RANDEV","OBJECT_ID":"2022-065E","EPOCH":"2026-03-09T22:32:03.893280","MEAN_MOTION":14.63497049,"ECCENTRICITY":0.00074498,"INCLINATION":98.2039,"RA_OF_ASC_NODE":213.5498,"ARG_OF_PERICENTER":344.9996,"MEAN_ANOMALY":15.0984,"EPHEMERIS_TYPE":0,"CLASSIFICATION_TYPE":"U","NORAD_CAT_ID":52898,"ELEMENT_SET_NO":999,"REV_AT_EPOCH":19673,"BSTAR":0.00033412405,"MEAN_MOTION_DOT":1.684e-5,"MEAN_MOTION_DDOT":0},{"OBJECT_NAME":"FENGYUN 1C DEB","OBJECT_ID":"1999-025EN","EPOCH":"2026-03-09T12:37:10.736544","MEAN_MOTION":14.32322513,"ECCENTRICITY":0.01664305,"INCLINATION":98.9326,"RA_OF_ASC_NODE":337.5053,"ARG_OF_PERICENTER":274.1464,"MEAN_ANOMALY":84.0713,"EPHEMERIS_TYPE":0,"CLASSIFICATION_TYPE":"U","NORAD_CAT_ID":29844,"ELEMENT_SET_NO":999,"REV_AT_EPOCH":99583,"BSTAR":0.00059808005,"MEAN_MOTION_DOT":1.83e-5,"MEAN_MOTION_DDOT":0}]
